[{"OBJECT_NAME":"ASTROCAST-0401","OBJECT_ID":"2023-001DF","EPOCH":"2026-03-09T17:04:53.382144","MEAN_MOTION":15.26258462,"ECCENTRICITY":0.00081423,"INCLINATION":97.5547,"RA_OF_ASC_NODE":160.5206,"ARG_OF_PERICENTER":188.4231,"MEAN_ANOMALY":171.6872,"EPHEMERIS_TYPE":0,"CLASSIFICATION_TYPE":"U","NORAD_CAT_ID":55110,"ELEMENT_SET_NO":999,"REV_AT_EPOCH":17602,"BSTAR":0.00037868349,"MEAN_MOTION_DOT":9.75e-5,"MEAN_MOTION_DDOT":0},{"OBJECT_NAME":"STARLINK-36491","OBJECT_ID":"2026-002F","EPOCH":"2026-03-09T09:52:24.587616","MEAN_MOTION":15.27574029,"ECCENTRICITY":8.71e-5,"INCLINATION":42.9986,"RA_OF_ASC_NODE":327.0738,"ARG_OF_PERICENTER":293.9066,"MEAN_ANOMALY":66.1694,"EPHEMERIS_TYPE":0,"CLASSIFICATION_TYPE":"U","NORAD_CAT_ID":67310,"ELEMENT_SET_NO":999,"REV_AT_EPOCH":1103,"BSTAR":0.0013209379,"MEAN_MOTION_DOT":0.00036259,"MEAN_MOTION_DDOT":0}]
